STARLINK-1297
1 15395C 20019AM  21326.16910318 -.00001017  00000-0 -68179-4 0  3261
2 15395  53.0548 347.9931 0001624  51.7710  53.1410 15.06395116    15
